CTC1_L_00138016-03
1 10062U 24882PN  26075.70031250  .00000000  00000+0  00000-0 0  9990
2 10062  70.0000 180.0000 0000000   0.0000   0.0000 14.15679949    13
CTC1_L_00138016-04
1 10063U 24042AC  26075.70031250  .00000000  00000+0  00000-0 0  9999
2 10063  70.0000 180.0000 0000000   0.0000  90.0000 14.15679949    13
CTC1_L_00138017-01
1 10064U 22751ZI  26075.70031250  .00000000  00000+0  00000-0 0  9995
2 10064  70.0000 192.0000 0000000   0.0000 192.0000 14.15679949    10
CTC1_L_00138017-02
1 10065U 23242TW  26075.70031250  .00000000  00000+0  00000-0 0  9992
2 10065  70.0000 192.0000 0000000   0.0000 282.0000 14.15679949    11
CTC1_L_00138017-03
1 10066U 25248PB  26075.70031250  .00000000  00000+0  00000-0 0  9991
2 10066  70.0000 192.0000 0000000   0.0000  12.0000 14.15679949    13
CTC1_L_00138017-04
1 10067U 26869KQ  26075.70031250  .00000000  00000+0  00000-0 0  9992
2 10067  70.0000 192.0000 0000000   0.0000 102.0000 14.15679949    14
CTC1_L_00138018-01
1 10068U 26114GP  26075.70031250  .00000000  00000+0  00000-0 0  9996
2 10068  70.0000 204.0000 0000000   0.0000 204.0000 14.15679949    12
CTC1_L_00138018-02
1 10069U 25130FS  26075.70031250  .00000000  00000+0  00000-0 0  9994
2 10069  70.0000 204.0000 0000000   0.0000 294.0000 14.15679949    12
CTC1_L_00138018-03
1 10070U 24628UF  26075.70031250  .00000000  00000+0  00000-0 0  9997
2 10070  70.0000 204.0000 0000000   0.0000  24.0000 14.15679949    15
CTC1_L_00138018-04
1 10071U 22416RJ  26075.70031250  .00000000  00000+0  00000-0 0  9991
2 10071  70.0000 204.0000 0000000   0.0000 114.0000 14.15679949    16
CTC1_L_00138019-01
1 10072U 24293PU  26075.70031250  .00000000  00000+0  00000-0 0  9997
2 10072  70.0000 216.0000 0000000   0.0000 216.0000 14.15679949    13
CTC1_L_00138019-02
1 10073U 24772LJ  26075.70031250  .00000000  00000+0  00000-0 0  9990
2 10073  70.0000 216.0000 0000000   0.0000 306.0000 14.15679949    14
CTC1_L_00138019-03
1 10074U 26287UY  26075.70031250  .00000000  00000+0  00000-0 0  9994
2 10074  70.0000 216.0000 0000000   0.0000  36.0000 14.15679949    15
CTC1_L_00138019-04
1 10075U 22885WZ  26075.70031250  .00000000  00000+0  00000-0 0  9995
2 10075  70.0000 216.0000 0000000   0.0000 126.0000 14.15679949    16
CTC1_L_00138020-01
1 10076U 24454CI  26075.70031250  .00000000  00000+0  00000-0 0  9990
2 10076  70.0000 228.0000 0000000   0.0000 228.0000 14.15679949    13
CTC1_L_00138020-02
1 10077U 24045FE  26075.70031250  .00000000  00000+0  00000-0 0  9997
2 10077  70.0000 228.0000 0000000   0.0000 318.0000 14.15679949    14
CTC1_L_00138020-03
1 10078U 24686GJ  26075.70031250  .00000000  00000+0  00000-0 0  9999
2 10078  70.0000 228.0000 0000000   0.0000  48.0000 14.15679949    15
CTC1_L_00138020-04
1 10079U 25207SB  26075.70031250  .00000000  00000+0  00000-0 0  9990
2 10079  70.0000 228.0000 0000000   0.0000 138.0000 14.15679949    16
CTC1_L_00138021-01
1 10080U 26216DO  26075.70031250  .00000000  00000+0  00000-0 0  9993
2 10080  70.0000 240.0000 0000000   0.0000 240.0000 14.15679949    16
CTC1_L_00138021-02
1 10081U 25462HK  26075.70031250  .00000000  00000+0  00000-0 0  9996
2 10081  70.0000 240.0000 0000000   0.0000 330.0000 14.15679949    17
CTC1_L_00138021-03
1 10082U 26080II  26075.70031250  .00000000  00000+0  00000-0 0  9994
2 10082  70.0000 240.0000 0000000   0.0000  60.0000 14.15679949    18
CTC1_L_00138021-04
1 10083U 26618IG  26075.70031250  .00000000  00000+0  00000-0 0  9992
2 10083  70.0000 240.0000 0000000   0.0000 150.0000 14.15679949    19
CTC1_L_00138022-01
1 10084U 25397BF  26075.70031250  .00000000  00000+0  00000-0 0  9996
2 10084  70.0000 252.0000 0000000   0.0000 252.0000 14.15679949    16
CTC1_L_00138022-02
1 10085U 26204BG  26075.70031250  .00000000  00000+0  00000-0 0  9995
2 10085  70.0000 252.0000 0000000   0.0000 342.0000 14.15679949    17
CTC1_L_00138022-03
1 10086U 26537LC  26075.70031250  .00000000  00000+0  00000-0 0  9995
2 10086  70.0000 252.0000 0000000   0.0000  72.0000 14.15679949    18
CTC1_L_00138022-04
1 10087U 23112GT  26075.70031250  .00000000  00000+0  00000-0 0  9992
2 10087  70.0000 252.0000 0000000   0.0000 162.0000 14.15679949    19
CTC1_L_00138023-01
1 10088U 23880SB  26075.70031250  .00000000  00000+0  00000-0 0  9995
2 10088  70.0000 264.0000 0000000   0.0000 264.0000 14.15679949    16
CTC1_L_00138023-02
1 10089U 22831PU  26075.70031250  .00000000  00000+0  00000-0 0  9991
2 10089  70.0000 264.0000 0000000   0.0000 354.0000 14.15679949    17
CTC1_L_00138023-03
1 10090U 22725ZU  26075.70031250  .00000000  00000+0  00000-0 0  9995
2 10090  70.0000 264.0000 0000000   0.0000  84.0000 14.15679949    19
CTC1_L_00138023-04
1 10091U 25633SN  26075.70031250  .00000000  00000+0  00000-0 0  9997
2 10091  70.0000 264.0000 0000000   0.0000 174.0000 14.15679949    10
CTC1_L_00138024-01
1 10092U 22199EZ  26075.70031250  .00000000  00000+0  00000-0 0  9992
2 10092  70.0000 276.0000 0000000   0.0000 276.0000 14.15679949    17
CTC1_L_00138024-02
1 10093U 25330S   26075.70031250  .00000000  00000+0  00000-0 0  9993
2 10093  70.0000 276.0000 0000000   0.0000   6.0000 14.15679949    19
CTC1_L_00138024-03
1 10094U 22838UQ  26075.70031250  .00000000  00000+0  00000-0 0  9994
2 10094  70.0000 276.0000 0000000   0.0000  96.0000 14.15679949    19
CTC1_L_00138024-04
1 10095U 25930LB  26075.70031250  .00000000  00000+0  00000-0 0  9991
2 10095  70.0000 276.0000 0000000   0.0000 186.0000 14.15679949    10
CTC1_L_00138025-01
1 10096U 23927MB  26075.70031250  .00000000  00000+0  00000-0 0  9996
2 10096  70.0000 288.0000 0000000   0.0000 288.0000 14.15679949    17
CTC1_L_00138025-02
1 10097U 24875EQ  26075.70031250  .00000000  00000+0  00000-0 0  9990
2 10097  70.0000 288.0000 0000000   0.0000  18.0000 14.15679949    19
CTC1_L_00138025-03
1 10098U 23906GZ  26075.70031250  .00000000  00000+0  00000-0 0  9995
2 10098  70.0000 288.0000 0000000   0.0000 108.0000 14.15679949    10
CTC1_L_00138025-04
1 10099U 22567BQ  26075.70031250  .00000000  00000+0  00000-0 0  9998
2 10099  70.0000 288.0000 0000000   0.0000 198.0000 14.15679949    10
CTC1_L_00138026-01
1 10100U 23277XX  26075.70031250  .00000000  00000+0  00000-0 0  9990
2 10100  70.0000 300.0000 0000000   0.0000 300.0000 14.15679949    13
CTC1_L_00138026-02
1 10101U 26287PW  26075.70031250  .00000000  00000+0  00000-0 0  9995
2 10101  70.0000 300.0000 0000000   0.0000  30.0000 14.15679949    14
CTC1_L_00138026-03
1 10102U 26268CY  26075.70031250  .00000000  00000+0  00000-0 0  9995
2 10102  70.0000 300.0000 0000000   0.0000 120.0000 14.15679949    15
CTC1_L_00138026-04
1 10103U 24857JG  26075.70031250  .00000000  00000+0  00000-0 0  9998
2 10103  70.0000 300.0000 0000000   0.0000 210.0000 14.15679949    16
CTC1_L_00138027-01
1 10104U 23532OH  26075.70031250  .00000000  00000+0  00000-0 0  9998
2 10104  70.0000 312.0000 0000000   0.0000 312.0000 14.15679949    13
CTC1_L_00138027-02
1 10105U 25922BV  26075.70031250  .00000000  00000+0  00000-0 0  9994
2 10105  70.0000 312.0000 0000000   0.0000  42.0000 14.15679949    14
CTC1_L_00138027-03
1 10106U 24137SM  26075.70031250  .00000000  00000+0  00000-0 0  9992
2 10106  70.0000 312.0000 0000000   0.0000 132.0000 14.15679949    15
CTC1_L_00138027-04
1 10107U 24839XN  26075.70031250  .00000000  00000+0  00000-0 0  9992
2 10107  70.0000 312.0000 0000000   0.0000 222.0000 14.15679949    16
CTC1_L_00138028-01
1 10108U 26999QH  26075.70031250  .00000000  00000+0  00000-0 0  9992
2 10108  70.0000 324.0000 0000000   0.0000 324.0000 14.15679949    13
CTC1_L_00138028-02
1 10109U 24453QX  26075.70031250  .00000000  00000+0  00000-0 0  9996
2 10109  70.0000 324.0000 0000000   0.0000  54.0000 14.15679949    14
CTC1_L_00138028-03
1 10110U 25870GI  26075.70031250  .00000000  00000+0  00000-0 0  9992
2 10110  70.0000 324.0000 0000000   0.0000 144.0000 14.15679949    16
CTC1_L_00138028-04
1 10111U 25313OA  26075.70031250  .00000000  00000+0  00000-0 0  9995
2 10111  70.0000 324.0000 0000000   0.0000 234.0000 14.15679949    17
CTC1_L_00138029-01
1 10112U 25263NI  26075.70031250  .00000000  00000+0  00000-0 0  9990
2 10112  70.0000 336.0000 0000000   0.0000 336.0000 14.15679949    14
CTC1_L_00138029-02
1 10113U 24947AR  26075.70031250  .00000000  00000+0  00000-0 0  9999
2 10113  70.0000 336.0000 0000000   0.0000  66.0000 14.15679949    15
CTC1_L_00138029-03
1 10114U 24440EC  26075.70031250  .00000000  00000+0  00000-0 0  9998
2 10114  70.0000 336.0000 0000000   0.0000 156.0000 14.15679949    16
CTC1_L_00138029-04
1 10115U 24580RT  26075.70031250  .00000000  00000+0  00000-0 0  9994
2 10115  70.0000 336.0000 0000000   0.0000 246.0000 14.15679949    17
CTC1_L_00138030-01
1 10116U 23626LS  26075.70031250  .00000000  00000+0  00000-0 0  9995
2 10116  70.0000 348.0000 0000000   0.0000 348.0000 14.15679949    14
CTC1_L_00138030-02
1 10117U 25353JU  26075.70031250  .00000000  00000+0  00000-0 0  9995
2 10117  70.0000 348.0000 0000000   0.0000  78.0000 14.15679949    15
CTC1_L_00138030-03
1 10118U 24370XI  26075.70031250  .00000000  00000+0  00000-0 0  9994
2 10118  70.0000 348.0000 0000000   0.0000 168.0000 14.15679949    16
CTC1_L_00138030-04
1 10119U 24063IL  26075.70031250  .00000000  00000+0  00000-0 0  9994
2 10119  70.0000 348.0000 0000000   0.0000 258.0000 14.15679949    17
